{
  "type": "FeatureCollection",
  "features": [
    {
      "type": "Feature",
      "properties": {
        "norad_id": 19071,
        "name": "OSCAR 32",
        "group": "nnss",
        "lat": -74.48647980076538,
        "lon": 18.128800941654475,
        "alt_km": 1294.4277154685087,
        "timestamp": "2025-12-27T03:58:44.421075+00:00",
        "meta_object_name": "OSCAR 32",
        "meta_object_id": "1988-033B",
        "meta_epoch": "2025-12-26T10:53:58.878816",
        "meta_mean_motion": 13.27955937,
        "meta_eccentricity": 0.0189311,
        "meta_inclination": 90.3209,
        "meta_ra_of_asc_node": 16.9498,
        "meta_arg_of_pericenter": 128.8267,
        "meta_mean_anomaly": 355.8113,
        "meta_ephemeris_type": 0,
        "meta_classification_type": "U",
        "meta_norad_cat_id": 19071,
        "meta_element_set_no": 999,
        "meta_rev_at_epoch": 82447,
        "meta_bstar": 0.00013956,
        "meta_mean_motion_dot": 7.9e-07,
        "meta_mean_motion_ddot": 0,
        "tle_line1": "1 19071U 88033B   25360.45415369  .00000079  00000+0  13956-3 0  9995",
        "tle_line2": "2 19071  90.3209  16.9498 0189311 128.8267 355.8113 13.27955937824479"
      },
      "geometry": {
        "type": "Point",
        "coordinates": [
          18.128800941654475,
          -74.48647980076538
        ]
      }
    },
    {
      "type": "Feature",
      "properties": {
        "norad_id": 19223,
        "name": "NOVA 2",
        "group": "nnss",
        "lat": -41.510081921399184,
        "lon": -101.73378112883535,
        "alt_km": 1189.5845811441277,
        "timestamp": "2025-12-27T03:58:44.421084+00:00",
        "meta_object_name": "NOVA 2",
        "meta_object_id": "1988-052A",
        "meta_epoch": "2025-12-26T16:48:25.235712",
        "meta_mean_motion": 13.22937608,
        "meta_eccentricity": 0.0029415,
        "meta_inclination": 89.9863,
        "meta_ra_of_asc_node": 78.2547,
        "meta_arg_of_pericenter": 338.0829,
        "meta_mean_anomaly": 187.9469,
        "meta_ephemeris_type": 0,
        "meta_classification_type": "U",
        "meta_norad_cat_id": 19223,
        "meta_element_set_no": 999,
        "meta_rev_at_epoch": 81132,
        "meta_bstar": 0.00012528,
        "meta_mean_motion_dot": 6.1e-07,
        "meta_mean_motion_ddot": 0,
        "tle_line1": "1 19223U 88052A   25360.70029208  .00000061  00000+0  12528-3 0  9991",
        "tle_line2": "2 19223  89.9863  78.2547 0029415 338.0829 187.9469 13.22937608811329"
      },
      "geometry": {
        "type": "Point",
        "coordinates": [
          -101.73378112883535,
          -41.510081921399184
        ]
      }
    },
    {
      "type": "Feature",
      "properties": {
        "norad_id": 19419,
        "name": "OSCAR 25",
        "group": "nnss",
        "lat": -59.680479606691584,
        "lon": -159.76684409405334,
        "alt_km": 1048.412334001633,
        "timestamp": "2025-12-27T03:58:44.421094+00:00",
        "meta_object_name": "OSCAR 25",
        "meta_object_id": "1988-074A",
        "meta_epoch": "2025-12-26T13:18:28.068192",
        "meta_mean_motion": 13.42625822,
        "meta_eccentricity": 0.0095317,
        "meta_inclination": 90.0336,
        "meta_ra_of_asc_node": 20.2886,
        "meta_arg_of_pericenter": 205.9306,
        "meta_mean_anomaly": 320.1104,
        "meta_ephemeris_type": 0,
        "meta_classification_type": "U",
        "meta_norad_cat_id": 19419,
        "meta_element_set_no": 999,
        "meta_rev_at_epoch": 82825,
        "meta_bstar": 0.00014338,
        "meta_mean_motion_dot": 9.2e-07,
        "meta_mean_motion_ddot": 0,
        "tle_line1": "1 19419U 88074A   25360.55449153  .00000092  00000+0  14338-3 0  9995",
        "tle_line2": "2 19419  90.0336  20.2886 0095317 205.9306 320.1104 13.42625822828254"
      },
      "geometry": {
        "type": "Point",
        "coordinates": [
          -159.76684409405334,
          -59.680479606691584
        ]
      }
    },
    {
      "type": "Feature",
      "properties": {
        "norad_id": 19420,
        "name": "OSCAR 31",
        "group": "nnss",
        "lat": 60.25538942975538,
        "lon": -159.29511727502432,
        "alt_km": 1079.4448534359672,
        "timestamp": "2025-12-27T03:58:44.421103+00:00",
        "meta_object_name": "OSCAR 31",
        "meta_object_id": "1988-074B",
        "meta_epoch": "2025-12-26T19:18:00.636192",
        "meta_mean_motion": 13.42586836,
        "meta_eccentricity": 0.009374,
        "meta_inclination": 90.0353,
        "meta_ra_of_asc_node": 20.6418,
        "meta_arg_of_pericenter": 199.3606,
        "meta_mean_anomaly": 334.6034,
        "meta_ephemeris_type": 0,
        "meta_classification_type": "U",
        "meta_norad_cat_id": 19420,
        "meta_element_set_no": 999,
        "meta_rev_at_epoch": 82839,
        "meta_bstar": 0.00011173,
        "meta_mean_motion_dot": 7.4e-07,
        "meta_mean_motion_ddot": 0,
        "tle_line1": "1 19420U 88074B   25360.80417403  .00000074  00000+0  11173-3 0  9992",
        "tle_line2": "2 19420  90.0353  20.6418 0093740 199.3606 334.6034 13.42586836828395"
      },
      "geometry": {
        "type": "Point",
        "coordinates": [
          -159.29511727502432,
          60.25538942975538
        ]
      }
    }
  ]
}